{
  "type": "FeatureCollection",
  "features": [
    {
      "type": "Feature",
      "properties": {
        "norad_id": 34765,
        "name": "IRIDIUM 33 DEB",
        "group": "iridium-33-debris",
        "lat": 70.071764068277,
        "lon": -153.75889900049802,
        "alt_km": 757.4868458108731,
        "timestamp": "2025-12-04T05:42:43.757400+00:00",
        "meta_object_name": "IRIDIUM 33 DEB",
        "meta_object_id": "1997-051LJ",
        "meta_epoch": "2025-12-02T05:08:41.186976",
        "meta_mean_motion": 14.40418764,
        "meta_eccentricity": 0.00145508,
        "meta_inclination": 86.3401,
        "meta_ra_of_asc_node": 37.2773,
        "meta_arg_of_pericenter": 249.3549,
        "meta_mean_anomaly": 173.3707,
        "meta_ephemeris_type": 0,
        "meta_classification_type": "U",
        "meta_norad_cat_id": 34765,
        "meta_element_set_no": 999,
        "meta_rev_at_epoch": 87462,
        "meta_bstar": 0.00049787542,
        "meta_mean_motion_dot": 1.602e-05,
        "meta_mean_motion_ddot": 0,
        "tle_line1": "1 34765U 97051LJ  25336.21436559  .00001602  00000+0  49788-3 0  9998",
        "tle_line2": "2 34765  86.3401  37.2773 0014550 249.3549 173.3707 14.40418764874623"
      },
      "geometry": {
        "type": "Point",
        "coordinates": [
          -153.75889900049802,
          70.071764068277
        ]
      }
    },
    {
      "type": "Feature",
      "properties": {
        "norad_id": 34833,
        "name": "IRIDIUM 33 DEB",
        "group": "iridium-33-debris",
        "lat": -32.17752113434461,
        "lon": -123.06886929434029,
        "alt_km": 723.748894654048,
        "timestamp": "2025-12-04T05:42:43.757411+00:00",
        "meta_object_name": "IRIDIUM 33 DEB",
        "meta_object_id": "1997-051MH",
        "meta_epoch": "2025-12-02T23:15:35.069760",
        "meta_mean_motion": 14.52273941,
        "meta_eccentricity": 0.00215243,
        "meta_inclination": 86.3939,
        "meta_ra_of_asc_node": 55.2036,
        "meta_arg_of_pericenter": 128.6325,
        "meta_mean_anomaly": 293.7121,
        "meta_ephemeris_type": 0,
        "meta_classification_type": "U",
        "meta_norad_cat_id": 34833,
        "meta_element_set_no": 999,
        "meta_rev_at_epoch": 87573,
        "meta_bstar": 0.0011259064,
        "meta_mean_motion_dot": 4.607e-05,
        "meta_mean_motion_ddot": 0,
        "tle_line1": "1 34833U 97051MH  25336.96915590  .00004607  00000+0  11259-2 0  9992",
        "tle_line2": "2 34833  86.3939  55.2036 0021524 128.6325 293.7121 14.52273941875736"
      },
      "geometry": {
        "type": "Point",
        "coordinates": [
          -123.06886929434029,
          -32.17752113434461
        ]
      }
    },
    {
      "type": "Feature",
      "properties": {
        "norad_id": 34870,
        "name": "IRIDIUM 33 DEB",
        "group": "iridium-33-debris",
        "lat": 8.247093755927311,
        "lon": 137.44176427022134,
        "alt_km": 635.8956400231455,
        "timestamp": "2025-12-04T05:42:43.757422+00:00",
        "meta_object_name": "IRIDIUM 33 DEB",
        "meta_object_id": "1997-051MQ",
        "meta_epoch": "2025-12-03T16:42:25.585344",
        "meta_mean_motion": 14.7612151,
        "meta_eccentricity": 0.00150063,
        "meta_inclination": 86.3102,
        "meta_ra_of_asc_node": 318.2257,
        "meta_arg_of_pericenter": 217.2591,
        "meta_mean_anomaly": 316.7951,
        "meta_ephemeris_type": 0,
        "meta_classification_type": "U",
        "meta_norad_cat_id": 34870,
        "meta_element_set_no": 999,
        "meta_rev_at_epoch": 88777,
        "meta_bstar": 0.002200073,
        "meta_mean_motion_dot": 0.00015256,
        "meta_mean_motion_ddot": 0,
        "tle_line1": "1 34870U 97051MQ  25337.69612946  .00015256  00000+0  22001-2 0  9992",
        "tle_line2": "2 34870  86.3102 318.2257 0015006 217.2591 316.7951 14.76121510887778"
      },
      "geometry": {
        "type": "Point",
        "coordinates": [
          137.44176427022134,
          8.247093755927311
        ]
      }
    },
    {
      "type": "Feature",
      "properties": {
        "norad_id": 34896,
        "name": "IRIDIUM 33 DEB",
        "group": "iridium-33-debris",
        "lat": -38.65498237480416,
        "lon": -32.444758200578775,
        "alt_km": 675.5499085280953,
        "timestamp": "2025-12-04T05:42:43.757432+00:00",
        "meta_object_name": "IRIDIUM 33 DEB",
        "meta_object_id": "1997-051MY",
        "meta_epoch": "2025-12-02T06:27:15.824160",
        "meta_mean_motion": 14.66099888,
        "meta_eccentricity": 0.0023761,
        "meta_inclination": 86.3285,
        "meta_ra_of_asc_node": 331.3819,
        "meta_arg_of_pericenter": 253.426,
        "meta_mean_anomaly": 121.6385,
        "meta_ephemeris_type": 0,
        "meta_classification_type": "U",
        "meta_norad_cat_id": 34896,
        "meta_element_set_no": 999,
        "meta_rev_at_epoch": 87466,
        "meta_bstar": 0.0012182,
        "meta_mean_motion_dot": 6.738e-05,
        "meta_mean_motion_ddot": 0,
        "tle_line1": "1 34896U 97051MY  25336.26893315  .00006738  00000+0  12182-2 0  9997",
        "tle_line2": "2 34896  86.3285 331.3819 0023761 253.4260 121.6385 14.66099888874669"
      },
      "geometry": {
        "type": "Point",
        "coordinates": [
          -32.444758200578775,
          -38.65498237480416
        ]
      }
    },
    {
      "type": "Feature",
      "properties": {
        "norad_id": 34926,
        "name": "IRIDIUM 33 DEB",
        "group": "iridium-33-debris",
        "lat": 57.83317048707744,
        "lon": 18.38782541577944,
        "alt_km": 713.4363989587546,
        "timestamp": "2025-12-04T05:42:43.757443+00:00",
        "meta_object_name": "IRIDIUM 33 DEB",
        "meta_object_id": "1997-051NF",
        "meta_epoch": "2025-12-02T20:58:36.078816",
        "meta_mean_motion": 14.53691359,
        "meta_eccentricity": 0.00769886,
        "meta_inclination": 86.1332,
        "meta_ra_of_asc_node": 12.8456,
        "meta_arg_of_pericenter": 326.4034,
        "meta_mean_anomaly": 157.1189,
        "meta_ephemeris_type": 0,
        "meta_classification_type": "U",
        "meta_norad_cat_id": 34926,
        "meta_element_set_no": 999,
        "meta_rev_at_epoch": 86313,
        "meta_bstar": 0.0065509461,
        "meta_mean_motion_dot": 0.00028633,
        "meta_mean_motion_ddot": 0,
        "tle_line1": "1 34926U 97051NF  25336.87402869  .00028633  00000+0  65509-2 0  9997",
        "tle_line2": "2 34926  86.1332  12.8456 0076988 326.4034 157.1189 14.53691359863134"
      },
      "geometry": {
        "type": "Point",
        "coordinates": [
          18.38782541577944,
          57.83317048707744
        ]
      }
    },
    {
      "type": "Feature",
      "properties": {
        "norad_id": 34985,
        "name": "IRIDIUM 33 DEB",
        "group": "iridium-33-debris",
        "lat": -13.024672015624045,
        "lon": -118.65269439972244,
        "alt_km": 748.8144284769805,
        "timestamp": "2025-12-04T05:42:43.757453+00:00",
        "meta_object_name": "IRIDIUM 33 DEB",
        "meta_object_id": "1997-051NR",
        "meta_epoch": "2025-12-03T17:45:54.671040",
        "meta_mean_motion": 14.41942363,
        "meta_eccentricity": 0.0019945,
        "meta_inclination": 86.3703,
        "meta_ra_of_asc_node": 60.7182,
        "meta_arg_of_pericenter": 251.1586,
        "meta_mean_anomaly": 239.5788,
        "meta_ephemeris_type": 0,
        "meta_classification_type": "U",
        "meta_norad_cat_id": 34985,
        "meta_element_set_no": 999,
        "meta_rev_at_epoch": 87045,
        "meta_bstar": 0.0011135704,
        "meta_mean_motion_dot": 3.675e-05,
        "meta_mean_motion_ddot": 0,
        "tle_line1": "1 34985U 97051NR  25337.74021610  .00003675  00000+0  11136-2 0  9996",
        "tle_line2": "2 34985  86.3703  60.7182 0019945 251.1586 239.5788 14.41942363870451"
      },
      "geometry": {
        "type": "Point",
        "coordinates": [
          -118.65269439972244,
          -13.024672015624045
        ]
      }
    },
    {
      "type": "Feature",
      "properties": {
        "norad_id": 35051,
        "name": "IRIDIUM 33 DEB",
        "group": "iridium-33-debris",
        "lat": -44.92977853733111,
        "lon": 8.893227721783644,
        "alt_km": 747.4407067229376,
        "timestamp": "2025-12-04T05:42:43.757463+00:00",
        "meta_object_name": "IRIDIUM 33 DEB",
        "meta_object_id": "1997-051NX",
        "meta_epoch": "2025-12-02T20:44:20.358528",
        "meta_mean_motion": 14.47524123,
        "meta_eccentricity": 0.00104766,
        "meta_inclination": 86.3255,
        "meta_ra_of_asc_node": 13.167,
        "meta_arg_of_pericenter": 117.6322,
        "meta_mean_anomaly": 242.5946,
        "meta_ephemeris_type": 0,
        "meta_classification_type": "U",
        "meta_norad_cat_id": 35051,
        "meta_element_set_no": 999,
        "meta_rev_at_epoch": 86853,
        "meta_bstar": 0.00083073982,
        "meta_mean_motion_dot": 3.075e-05,
        "meta_mean_motion_ddot": 0,
        "tle_line1": "1 35051U 97051NX  25336.86412452  .00003075  00000+0  83074-3 0  9996",
        "tle_line2": "2 35051  86.3255  13.1670 0010476 117.6322 242.5946 14.47524123868538"
      },
      "geometry": {
        "type": "Point",
        "coordinates": [
          8.893227721783644,
          -44.92977853733111
        ]
      }
    }
  ]
}